NORAD_CAT_ID,OBJECT_NAME,OBJECT_TYPE,EPOCH,MEAN_MOTION,ECCENTRICITY,INCLINATION,RA_OF_ASC_NODE,ARG_OF_PERICENTER,MEAN_ANOMALY,BSTAR,MEAN_MOTION_DOT,MEAN_MOTION_DDOT,TLE_LINE0,TLE_LINE1,TLE_LINE2,SEMIMAJOR_AXIS,PERIOD,APOGEE,PERIGEE,DECAYED
52839.0,STARLINK-4048,PAYLOAD,2022-07-16 06:00:00,15.73182288,0.0002277,53.2167,262.7205,15.0099,292.3226,-0.006539,-0.00832075,0.0,0 STARLINK-4048,1 52839U 22062K   22197.25001157 -.00832075  00000-0 -65390-2 0  9993,2 52839  53.2167 262.7205 0002277  15.0099 292.3226 15.73182288  5027,6727.946,91.534,351.343,348.279,0.0
52839.0,STARLINK-4048,PAYLOAD,2022-07-16 14:00:01,15.72581903,0.0002462,53.2177,261.0743,14.1533,21.732,-0.0090586,-0.01108279,0.0,0 STARLINK-4048,1 52839U 22062K   22197.58334491 -.01108279  00000-0 -90586-2 0  9997,2 52839  53.2177 261.0743 0002462  14.1533  21.7320 15.72581903  5076,6729.658,91.569,353.18,349.866,0.0
52839.0,STARLINK-4048,PAYLOAD,2022-07-16 22:00:00,15.71778589,0.0002942,53.2176,259.4264,10.8219,112.7583,-0.0093622,-0.01107072,0.0,0 STARLINK-4048,1 52839U 22062K   22197.91667824 -.01107072  00000-0 -93622-2 0  9997,2 52839  53.2176 259.4264 0002942  10.8219 112.7583 15.71778589  1302,6731.951,91.616,355.796,351.835,0.0
52839.0,STARLINK-4048,PAYLOAD,2022-07-17 06:00:00,15.70976302,0.0002827,53.2177,257.7823,13.5519,196.7566,-0.0096909,-0.01107386,0.0,0 STARLINK-4048,1 52839U 22062K   22198.25001157 -.01107386  00000-0 -96909-2 0  9995,2 52839  53.2177 257.7823 0002827  13.5519 196.7566 15.70976302  5174,6734.243,91.663,358.011,354.204,0.0
52839.0,STARLINK-4048,PAYLOAD,2022-07-17 14:00:01,15.70173668,0.0002932,53.2175,256.1419,9.6688,286.4027,-0.010029,-0.01107829,0.0,0 STARLINK-4048,1 52839U 22062K   22198.58334491 -.01107829  00000-0 -10029-1 0  9991,2 52839  53.2175 256.1419 0002932   9.6688 286.4027 15.70173668  1300,6736.5369999999975,91.71,360.377,356.427,0.0
52839.0,STARLINK-4048,PAYLOAD,2022-07-17 22:00:00,15.69370332,0.0002907,53.2175,254.4997,7.5611,13.3112,-0.010365,-0.01107091,0.0,0 STARLINK-4048,1 52839U 22062K   22198.91667824 -.01107091  00000-0 -10365-1 0  9991,2 52839  53.2175 254.4997 0002907   7.5611  13.3112 15.69370332  5285,6738.8359999999975,91.757,362.66,358.742,0.0
52839.0,STARLINK-4048,PAYLOAD,2022-07-18 14:00:01,15.67765067,0.000158,53.2175,251.227,274.826,272.7493,-0.011095,-0.0110794,0.0,0 STARLINK-4048,1 52839U 22062K   22199.58334491 -.01107940  00000-0 -11095-1 0  9990,2 52839  53.2175 251.2270 0001580 274.8260 272.7493 15.67765067  1302,6743.435,91.85,366.366,364.235,0.0
52839.0,STARLINK-4048,PAYLOAD,2022-07-18 22:00:00,15.66957787,5.36e-05,53.2177,249.5906,93.2552,176.22799999999995,-0.011373,-0.01117052,0.0,0 STARLINK-4048,1 52839U 22062K   22199.91667824 -.01117052  00000-0 -11373-1 0  9990,2 52839  53.2177 249.5906 0000536  93.2552 176.2280 15.66957787  5449,6745.751,91.898,367.978,367.254,0.0
52839.0,STARLINK-4048,PAYLOAD,2022-07-19 14:00:01,15.65352846,0.0001561999999999,53.2174,246.3296,35.3589,35.0371,-0.012137,-0.01117316,0.0,0 STARLINK-4048,1 52839U 22062K   22200.58334491 -.01117316  00000-0 -12137-1 0  9999,2 52839  53.2174 246.3296 0001562  35.3589  35.0371 15.65352846  5548,6750.361,91.992,373.281,371.172,0.0
52839.0,STARLINK-4048,PAYLOAD,2022-07-19 22:00:00,15.645508800000002,0.0001544,53.2174,244.6991,41.886,107.5213,-0.012551,-0.01118678,0.0,0 STARLINK-4048,1 52839U 22062K   22200.91667824 -.01118678  00000-0 -12551-1 0  9997,2 52839  53.2174 244.6991 0001544  41.8860 107.5213 15.64550880  1302,6752.668000000002,92.039,375.575,373.49,0.0
52839.0,STARLINK-4048,PAYLOAD,2022-07-20 04:00:00,15.63949395,0.0001269,53.2176,243.4789,62.2052,55.8263,-0.0128669999999999,-0.01119459,0.0,0 STARLINK-4048,1 52839U 22062K   22201.16667824 -.01119459  00000-0 -12867-1 0  9993,2 52839  53.2176 243.4789 0001269  62.2052  55.8263 15.63949395  5632,6754.399,92.075,377.121,375.407,0.0
52839.0,STARLINK-4048,PAYLOAD,2022-07-20 14:00:01,15.62945004,0.0001051,53.2173,241.4499,79.1517,225.3803,-0.013362,-0.01117294,0.0,0 STARLINK-4048,1 52839U 22062K   22201.58334491 -.01117294  00000-0 -13362-1 0  9996,2 52839  53.2173 241.4499 0001051  79.1517 225.3803 15.62945004  1303,6757.292,92.134,379.86800000000005,378.447,0.0
52839.0,STARLINK-4048,PAYLOAD,2022-07-20 22:00:01,15.62142598,0.0001137999999999,53.2175,239.8251,52.5039,328.2106,-0.013816,-0.01119194,0.0,0 STARLINK-4048,1 52839U 22062K   22201.91668981 -.01119194  00000-0 -13816-1 0  9992,2 52839  53.2175 239.8251 0001138  52.5039 328.2106 15.62142598  1308,6759.606,92.181,382.24,380.702,0.0
52839.0,STARLINK-4048,PAYLOAD,2022-07-21 14:00:01,15.60535104,0.0001281999999999,53.2174,236.5876,66.0587,103.9922,-0.0146439999999999,-0.01114768,0.0,0 STARLINK-4048,1 52839U 22062K   22202.58335648 -.01114768  00000-0 -14644-1 0  9999,2 52839  53.2174 236.5876 0001282  66.0587 103.9922 15.60535104  1303,6764.246999999999,92.276,386.98,385.245,0.0
52839.0,STARLINK-4048,PAYLOAD,2022-07-21 22:00:00,15.59733235,0.0001230999999999,53.2175,234.9687,65.5999,177.6084,-0.01513,-0.01116491,0.0,0 STARLINK-4048,1 52839U 22062K   22202.91667824 -.01116491  00000-0 -15130-1 0  9996,2 52839  53.2175 234.9687 0001231  65.5999 177.6084 15.59733235  1301,6766.566,92.323,389.263,387.598,0.0
52839.0,STARLINK-4048,PAYLOAD,2022-07-22 06:00:00,15.58932402,0.0001209,53.2176,233.3549,56.965,258.4984,-0.015649,-0.0111956,0.0,0 STARLINK-4048,1 52839U 22062K   22203.25001157 -.01119560  00000-0 -15649-1 0  9990,2 52839  53.2176 233.3549 0001209  56.9650 258.4984 15.58932402  5964,6768.8830000000025,92.371,391.566,389.929,0.0
52839.0,STARLINK-4048,PAYLOAD,2022-07-22 22:00:00,15.57324293,0.0001205,53.2173,230.1299,60.1727,36.9113,-0.016575,-0.01115959,0.0,0 STARLINK-4048,1 52839U 22062K   22203.91667824 -.01115959  00000-0 -16575-1 0  9999,2 52839  53.2173 230.1299 0001205  60.1727  36.9113 15.57324293  6063,6773.542,92.466,396.223,394.59,0.0
52839.0,STARLINK-4048,PAYLOAD,2022-07-23 14:00:01,15.55720173,0.0001238,53.2171,226.9156,70.9596,163.9467,-0.017622,-0.01117108,0.0,0 STARLINK-4048,1 52839U 22062K   22204.58335648 -.01117108  00000-0 -17622-1 0  9991,2 52839  53.2171 226.9156 0001238  70.9596 163.9467 15.55720173  1305,6778.196999999999,92.562,400.901,399.223,0.0
52839.0,STARLINK-4048,PAYLOAD,2022-07-23 16:00:00,15.55534671,0.0001273,53.2167,226.5127,50.6472,291.1368,-0.018127,-0.01138906,0.0,0 STARLINK-4048,1 52839U 22062K   22204.66667824 -.01138906  00000-0 -18127-1 0  9994,2 52839  53.2167 226.5127 0001273  50.6472 291.1368 15.55534671  6182,6778.736,92.573,401.464,399.73800000000006,0.0
52839.0,STARLINK-4048,PAYLOAD,2022-07-23 22:00:00,15.549149800000002,0.0001195,53.2174,225.3084,57.841,244.4352,-0.018101,-0.01113983,0.0,0 STARLINK-4048,1 52839U 22062K   22204.91667824 -.01113983  00000-0 -18101-1 0  9992,2 52839  53.2174 225.3084 0001195  57.8410 244.4352 15.54914980  1300,6780.5369999999975,92.61,403.212,401.592,0.0
52839.0,STARLINK-4048,PAYLOAD,2022-07-24 14:00:01,15.53311283,0.0001227,53.2172,222.1055,56.6222,17.6226,-0.019237,-0.01115876,0.0,0 STARLINK-4048,1 52839U 22062K   22205.58334491 -.01115876  00000-0 -19237-1 0  9991,2 52839  53.2172 222.1055 0001227  56.6222  17.6226 15.53311283  1301,6785.203,92.705,407.901,406.235,0.0
52839.0,STARLINK-4048,PAYLOAD,2022-07-24 22:00:00,15.52507612,0.0001388,53.2174,220.5043,54.1917,84.59299999999998,-0.019806,-0.01115773,0.0,0 STARLINK-4048,1 52839U 22062K   22205.91667824 -.01115773  00000-0 -19806-1 0  9995,2 52839  53.2174 220.5043 0001388  54.1917  84.5930 15.52507612  1301,6787.544,92.753,410.351,408.467,0.0
52839.0,STARLINK-4048,PAYLOAD,2022-07-25 14:00:01,15.50812779,0.0001476,53.2171,217.3127,64.5243,200.4583,-0.016616,-0.00886559,0.0,0 STARLINK-4048,1 52839U 22062K   22206.58334491 -.00886559  00000-0 -16616-1 0  9992,2 52839  53.2171 217.3127 0001476  64.5243 200.4583 15.50812779  1304,6792.489000000001,92.855,415.356,413.351,0.0
52839.0,STARLINK-4048,PAYLOAD,2022-07-25 22:00:00,15.50059003,0.0001513,53.2172,215.7168,64.2085,262.4202,-0.0046895,-0.00259581,0.0,0 STARLINK-4048,1 52839U 22062K   22206.91667824 -.00259581  00000-0 -46895-2 0  9990,2 52839  53.2172 215.7168 0001513  64.2085 262.4202 15.50059003  6534,6794.691,92.9,417.584,415.528,0.0
52839.0,STARLINK-4048,PAYLOAD,2022-07-26 06:00:00,15.50196234,0.0001354,53.2168,214.1232,48.8032,338.622,-0.0069933,-0.00382782,0.0,0 STARLINK-4048,1 52839U 22062K   22207.25001157 -.00382782  00000-0 -69933-2 0  9997,2 52839  53.2168 214.1232 0001354  48.8032 338.6220 15.50196234  6586,6794.29,92.891,417.075,415.235,0.0
52839.0,STARLINK-4048,PAYLOAD,2022-07-26 14:00:01,15.49903093,0.0001406999999999,53.2144,212.5243,48.6822,39.6829,-3.4795e-05,-2.427e-05,0.0,0 STARLINK-4048,1 52839U 22062K   22207.58334491 -.00002427  00000-0 -34795-4 0  9998,2 52839  53.2144 212.5243 0001407  48.6822  39.6829 15.49903093  1303,6795.146,92.909,417.967,416.055,0.0
52839.0,STARLINK-4048,PAYLOAD,2022-07-26 20:00:01,15.49950155,0.0001259,53.2175,211.3358,53.6576,350.5473,-0.0018932,-0.00106694,0.0,0 STARLINK-4048,1 52839U 22062K   22207.83334491 -.00106694  00000-0 -18932-2 0  9990,2 52839  53.2175 211.3358 0001259  53.6576 350.5473 15.49950155  6674,6795.009,92.906,417.729,416.018,0.0
52839.0,STARLINK-4048,PAYLOAD,2022-07-26 22:00:00,15.49881394,0.0001341999999999,53.2168,210.9376,52.1254,97.3398,8.0652e-05,4.128e-05,0.0,0 STARLINK-4048,1 52839U 22062K   22207.91667824  .00004128  00000-0  80652-4 0  9995,2 52839  53.2168 210.9376 0001342  52.1254  97.3398 15.49881394  1306,6795.21,92.91,417.987,416.163,0.0
52839.0,STARLINK-4048,PAYLOAD,2022-07-27 06:00:02,15.4991602,0.0001453999999999,53.2148,209.3379,52.7266,157.5477,-0.00024568,-0.00014385,0.0,0 STARLINK-4048,1 52839U 22062K   22208.25002315 -.00014385  00000-0 -24568-3 0  9992,2 52839  53.2148 209.3379 0001454  52.7266 157.5477 15.49916020  6747,6795.109,92.908,417.962,415.986,0.0
